sat20510
1 20510U 90018A   20046.81585958  .00000178  00000-0  12308-4 0  9991
2 20510  82.5176 316.1632 0010790 296.1670 124.1341 14.99425922627322
